{
  "type": "FeatureCollection",
  "features": [
    {
      "type": "Feature",
      "properties": {
        "norad_id": 38212,
        "name": "COSMOS 2251 DEB",
        "group": "cosmos-2251-debris",
        "lat": -14.224400497093145,
        "lon": 92.21014640265466,
        "alt_km": 706.9145615314137,
        "timestamp": "2025-12-02T15:49:07.592533+00:00",
        "meta_object_name": "COSMOS 2251 DEB",
        "meta_object_id": "1993-036BTC",
        "meta_epoch": "2025-11-30T02:08:11.826528",
        "meta_mean_motion": 14.77531577,
        "meta_eccentricity": 0.00935039,
        "meta_inclination": 74.0506,
        "meta_ra_of_asc_node": 101.4043,
        "meta_arg_of_pericenter": 172.1987,
        "meta_mean_anomaly": 188.0671,
        "meta_ephemeris_type": 0,
        "meta_classification_type": "U",
        "meta_norad_cat_id": 38212,
        "meta_element_set_no": 999,
        "meta_rev_at_epoch": 81123,
        "meta_bstar": 0.000758158,
        "meta_mean_motion_dot": 5.788e-05,
        "meta_mean_motion_ddot": 0,
        "tle_line1": "1 38212U 93036BTC 25334.08902577  .00005788  00000+0  75816-3 0  9999",
        "tle_line2": "2 38212  74.0506 101.4043 0093503 172.1987 188.0671 14.77531577811231"
      },
      "geometry": {
        "type": "Point",
        "coordinates": [
          92.21014640265466,
          -14.224400497093145
        ]
      }
    },
    {
      "type": "Feature",
      "properties": {
        "norad_id": 38220,
        "name": "COSMOS 2251 DEB",
        "group": "cosmos-2251-debris",
        "lat": -40.39308395420779,
        "lon": 74.45037241257695,
        "alt_km": 600.6111734250253,
        "timestamp": "2025-12-02T15:49:07.592543+00:00",
        "meta_object_name": "COSMOS 2251 DEB",
        "meta_object_id": "1993-036BTL",
        "meta_epoch": "2025-12-01T14:15:24.602400",
        "meta_mean_motion": 14.91758234,
        "meta_eccentricity": 0.00038438,
        "meta_inclination": 74.0144,
        "meta_ra_of_asc_node": 90.707,
        "meta_arg_of_pericenter": 105.3216,
        "meta_mean_anomaly": 254.8391,
        "meta_ephemeris_type": 0,
        "meta_classification_type": "U",
        "meta_norad_cat_id": 38220,
        "meta_element_set_no": 999,
        "meta_rev_at_epoch": 71204,
        "meta_bstar": 0.0036878,
        "meta_mean_motion_dot": 0.00037337,
        "meta_mean_motion_ddot": 0,
        "tle_line1": "1 38220U 93036BTL 25335.59403475  .00037337  00000+0  36878-2 0  9997",
        "tle_line2": "2 38220  74.0144  90.7070 0003843 105.3216 254.8391 14.91758234712046"
      },
      "geometry": {
        "type": "Point",
        "coordinates": [
          74.45037241257695,
          -40.39308395420779
        ]
      }
    },
    {
      "type": "Feature",
      "properties": {
        "norad_id": 38479,
        "name": "COSMOS 2251 DEB",
        "group": "cosmos-2251-debris",
        "lat": -66.38597940023844,
        "lon": 63.8944173375982,
        "alt_km": 741.1016605801187,
        "timestamp": "2025-12-02T15:49:07.592553+00:00",
        "meta_object_name": "COSMOS 2251 DEB",
        "meta_object_id": "1993-036BTP",
        "meta_epoch": "2025-11-15T12:46:06.719808",
        "meta_mean_motion": 14.37875238,
        "meta_eccentricity": 0.00846922,
        "meta_inclination": 74.0077,
        "meta_ra_of_asc_node": 234.4912,
        "meta_arg_of_pericenter": 348.2771,
        "meta_mean_anomaly": 195.3627,
        "meta_ephemeris_type": 0,
        "meta_classification_type": "U",
        "meta_norad_cat_id": 38479,
        "meta_element_set_no": 999,
        "meta_rev_at_epoch": 64296,
        "meta_bstar": 0.00281077,
        "meta_mean_motion_dot": 8.824e-05,
        "meta_mean_motion_ddot": 0,
        "tle_line1": "1 38479U 93036BTP 25319.53202222  .00008824  00000+0  28108-2 0  9992",
        "tle_line2": "2 38479  74.0077 234.4912 0084692 348.2771 195.3627 14.37875238642962"
      },
      "geometry": {
        "type": "Point",
        "coordinates": [
          63.8944173375982,
          -66.38597940023844
        ]
      }
    },
    {
      "type": "Feature",
      "properties": {
        "norad_id": 38481,
        "name": "COSMOS 2251 DEB",
        "group": "cosmos-2251-debris",
        "lat": -65.34544372577065,
        "lon": -13.91507867764246,
        "alt_km": 783.4310019088116,
        "timestamp": "2025-12-02T15:49:07.592563+00:00",
        "meta_object_name": "COSMOS 2251 DEB",
        "meta_object_id": "1993-036BTR",
        "meta_epoch": "2025-11-30T21:06:34.190496",
        "meta_mean_motion": 13.94733975,
        "meta_eccentricity": 0.02337783,
        "meta_inclination": 73.9329,
        "meta_ra_of_asc_node": 28.0528,
        "meta_arg_of_pericenter": 330.587,
        "meta_mean_anomaly": 28.2266,
        "meta_ephemeris_type": 0,
        "meta_classification_type": "U",
        "meta_norad_cat_id": 38481,
        "meta_element_set_no": 999,
        "meta_rev_at_epoch": 58895,
        "meta_bstar": 0.0013592661,
        "meta_mean_motion_dot": 2.261e-05,
        "meta_mean_motion_ddot": 0,
        "tle_line1": "1 38481U 93036BTR 25334.87956239  .00002261  00000+0  13593-2 0  9994",
        "tle_line2": "2 38481  73.9329  28.0528 0233778 330.5870  28.2266 13.94733975588952"
      },
      "geometry": {
        "type": "Point",
        "coordinates": [
          -13.91507867764246,
          -65.34544372577065
        ]
      }
    },
    {
      "type": "Feature",
      "properties": {
        "norad_id": 38483,
        "name": "COSMOS 2251 DEB",
        "group": "cosmos-2251-debris",
        "lat": -59.13938885967194,
        "lon": -122.05354293726245,
        "alt_km": 822.0052865102543,
        "timestamp": "2025-12-02T15:49:07.592574+00:00",
        "meta_object_name": "COSMOS 2251 DEB",
        "meta_object_id": "1993-036BTT",
        "meta_epoch": "2025-11-30T10:35:51.419040",
        "meta_mean_motion": 14.2869489,
        "meta_eccentricity": 0.01113545,
        "meta_inclination": 74.2627,
        "meta_ra_of_asc_node": 33.7569,
        "meta_arg_of_pericenter": 143.1875,
        "meta_mean_anomaly": 217.699,
        "meta_ephemeris_type": 0,
        "meta_classification_type": "U",
        "meta_norad_cat_id": 38483,
        "meta_element_set_no": 999,
        "meta_rev_at_epoch": 63302,
        "meta_bstar": 0.00092192588,
        "meta_mean_motion_dot": 2.455e-05,
        "meta_mean_motion_ddot": 0,
        "tle_line1": "1 38483U 93036BTT 25334.44156735  .00002455  00000+0  92193-3 0  9991",
        "tle_line2": "2 38483  74.2627  33.7569 0111354 143.1875 217.6990 14.28694890633022"
      },
      "geometry": {
        "type": "Point",
        "coordinates": [
          -122.05354293726245,
          -59.13938885967194
        ]
      }
    },
    {
      "type": "Feature",
      "properties": {
        "norad_id": 38485,
        "name": "COSMOS 2251 DEB",
        "group": "cosmos-2251-debris",
        "lat": 13.369263232782393,
        "lon": 156.5403507117081,
        "alt_km": 67.23492812986387,
        "timestamp": "2025-12-02T15:49:07.592584+00:00",
        "meta_object_name": "COSMOS 2251 DEB",
        "meta_object_id": "1993-036BTV",
        "meta_epoch": "2025-11-14T09:18:27.993600",
        "meta_mean_motion": 15.68613644,
        "meta_eccentricity": 0.00102471,
        "meta_inclination": 73.981,
        "meta_ra_of_asc_node": 194.9886,
        "meta_arg_of_pericenter": 147.6012,
        "meta_mean_anomaly": 212.5842,
        "meta_ephemeris_type": 0,
        "meta_classification_type": "U",
        "meta_norad_cat_id": 38485,
        "meta_element_set_no": 999,
        "meta_rev_at_epoch": 17189,
        "meta_bstar": 0.008021323,
        "meta_mean_motion_dot": 0.01011848,
        "meta_mean_motion_ddot": 0,
        "tle_line1": "1 38485U 93036BTV 25318.38782400  .01011848  00000+0  80213-2 0  9998",
        "tle_line2": "2 38485  73.9810 194.9886 0010247 147.6012 212.5842 15.68613644171892"
      },
      "geometry": {
        "type": "Point",
        "coordinates": [
          156.5403507117081,
          13.369263232782393
        ]
      }
    },
    {
      "type": "Feature",
      "properties": {
        "norad_id": 38486,
        "name": "COSMOS 2251 DEB",
        "group": "cosmos-2251-debris",
        "lat": 54.544825818877875,
        "lon": -111.53348828460004,
        "alt_km": 632.8002615375954,
        "timestamp": "2025-12-02T15:49:07.592594+00:00",
        "meta_object_name": "COSMOS 2251 DEB",
        "meta_object_id": "1993-036BTW",
        "meta_epoch": "2025-12-01T23:18:40.096224",
        "meta_mean_motion": 14.72693828,
        "meta_eccentricity": 0.00300221,
        "meta_inclination": 73.9411,
        "meta_ra_of_asc_node": 225.9531,
        "meta_arg_of_pericenter": 11.225,
        "meta_mean_anomaly": 1.4037,
        "meta_ephemeris_type": 0,
        "meta_classification_type": "U",
        "meta_norad_cat_id": 38486,
        "meta_element_set_no": 999,
        "meta_rev_at_epoch": 75276,
        "meta_bstar": 0.0031614805,
        "meta_mean_motion_dot": 0.00020338,
        "meta_mean_motion_ddot": 0,
        "tle_line1": "1 38486U 93036BTW 25335.97129741  .00020338  00000+0  31615-2 0  9991",
        "tle_line2": "2 38486  73.9411 225.9531 0030022  11.2250   1.4037 14.72693828752763"
      },
      "geometry": {
        "type": "Point",
        "coordinates": [
          -111.53348828460004,
          54.544825818877875
        ]
      }
    }
  ]
}